CAS-2T & KS-1Q          
1 41847U 16066G   20284.77376315  .00000048  00000-0  18497-4 0  9993
2 41847  98.6411 336.3764 0364564 245.1605 111.1265 14.38097020205994
NAYIF-1 (EO-88)         
1 42017U 17008BX  20285.17106956  .00001480  00000-0  58906-4 0  9997
2 42017  97.3489 350.9964 0004477 273.4139  86.6588 15.26823449203205
MAX VALIER SAT          
1 42778U 17036P   20284.86851321  .00000858  00000-0  39562-4 0  9995
2 42778  97.2925 335.2442 0011433 344.1840  15.9039 15.22819410183296
RADFXSAT (FOX-1B)       
1 43017U 17073E   20285.01217200  .00000807  00000-0  67406-4 0  9995
2 43017  97.7150 192.7517 0257543  34.0565 327.6877 14.79055147156248
FOX-1D (AO-92)          
1 43137U 18004AC  20284.76433776  .00000973  00000-0  42687-4 0  9990
2 43137  97.4358 355.0958 0009510  20.7164 339.4457 15.24343416152619
DIWATA-2B               
1 43678U 18084H   20285.18965348  .00000214  00000-0  27003-4 0  9993
2 43678  97.8965  43.6741 0010407 147.2720 212.9110 14.91659781106277
ES'HAIL 2               
1 43700U 18090A   20284.89250108  .00000142  00000-0  00000-0 0  9998
2 43700   0.0195 226.0487 0001891 359.4436 141.5678  1.00270766  6864
FOX-1CLIFF (AO-95)      
1 43770U 18099N   20285.16388855  .00000214  00000-0  24738-4 0  9994
2 43770  97.6960 354.4706 0014942 165.1277 195.0386 14.95061425101201
ITASAT 1                
1 43786U 18099AE  20284.80038764  .00000366  00000-0  38235-4 0  9997
2 43786  97.6973 354.6160 0015801 160.6480 199.5344 14.95386897101171
JY1SAT (JO-97)          
1 43803U 18099AX  20284.73390486  .00000461  00000-0  46658-4 0  9995
2 43803  97.6934 354.3434 0015777 161.0432 199.1379 14.95577541101164
PSAT2 (NO-104)          
1 44354U 19036R   20284.48579776  .00007443  00000-0  10391-3 0  9993
2 44354  28.5296 344.0175 0356449 101.3986 262.6857 15.05597466 71155
BRICSAT2 (NO-103)       
1 44355U 19036S   20284.80597793  .00016260  00000-0  21582-3 0  9990
2 44355  28.5292 326.0689 0327482 130.5352 232.4242 15.12951883 71370
JAISAT-1                
1 44419U 19038F   20284.90639433  .00000974  00000-0  58662-4 0  9997
2 44419  97.5524 245.2414 0023188  92.4420 267.9466 15.12964754 70057
DUCHIFAT-3              
1 44854U 19089C   20284.92354330  .00000392  00000-0  38028-4 0  9996
2 44854  36.9657 135.9102 0009479 280.8665  79.1007 14.99150878 45632
RS-44 & BREEZE-KM R/B   
1 44909U 19096E   20284.91201833  .00000036  00000-0  10488-3 0  9997
2 44909  82.5168 278.5913 0216640 316.8048  41.6234 12.79708458 36956
ORBITAL FACTORY 2 (OF-2)
1 45113U 19071C   20284.89345646  .00002034  00000-0  72643-4 0  9998
2 45113  51.6422 165.7312 0013561 112.6631 247.5786 15.33789304 38842
HUSKYSAT-1              
1 45119U 19071J   20284.92174763  .00001068  00000-0  43416-4 0  9990
2 45119  51.6420 165.1701 0012842 109.2934 250.9438 15.33974553 38845
